CCSDS_OMM_VERS = 2.0
CREATION_DATE  = 
ORIGINATOR     = 

OBJECT_NAME    = ATLAS CENTAUR R/B
OBJECT_ID      = 1972-065B
CENTER_NAME    = EARTH
REF_FRAME      = TEME
TIME_SYSTEM    = UTC
MEAN_ELEMENT_THEORY = SGP/SGP4

EPOCH          = 2026-03-02T11:07:49.161216
MEAN_MOTION    = 14.77663257
ECCENTRICITY   = .0034291
INCLINATION    = 35.0029
RA_OF_ASC_NODE = 348.0992
ARG_OF_PERICENTER = 308.4806
MEAN_ANOMALY   = 51.2821

EPHEMERIS_TYPE = 0
CLASSIFICATION_TYPE = U
NORAD_CAT_ID   = 6155
ELEMENT_SET_NO = 999
REV_AT_EPOCH   = 84019
BSTAR          = .2383879E-3
MEAN_MOTION_DOT = .1728E-4
MEAN_MOTION_DDOT = 0

CCSDS_OMM_VERS = 2.0
CREATION_DATE  = 
ORIGINATOR     = 

OBJECT_NAME    = SL-8 R/B
OBJECT_ID      = 1975-112B
CENTER_NAME    = EARTH
REF_FRAME      = TEME
TIME_SYSTEM    = UTC
MEAN_ELEMENT_THEORY = SGP/SGP4

EPOCH          = 2026-03-02T23:08:52.683360
MEAN_MOTION    = 14.38198824
ECCENTRICITY   = .00145882
INCLINATION    = 74.0614
RA_OF_ASC_NODE = 31.2826
ARG_OF_PERICENTER = 127.2549
MEAN_ANOMALY   = 232.9939

EPHEMERIS_TYPE = 0
CLASSIFICATION_TYPE = U
NORAD_CAT_ID   = 8459
ELEMENT_SET_NO = 999
REV_AT_EPOCH   = 63090
BSTAR          = .92557383E-4
MEAN_MOTION_DOT = .255E-5
MEAN_MOTION_DDOT = 0

CCSDS_OMM_VERS = 2.0
CREATION_DATE  = 
ORIGINATOR     = 

OBJECT_NAME    = SL-3 R/B
OBJECT_ID      = 1977-057B
CENTER_NAME    = EARTH
REF_FRAME      = TEME
TIME_SYSTEM    = UTC
MEAN_ELEMENT_THEORY = SGP/SGP4

EPOCH          = 2026-03-02T22:04:58.715328
MEAN_MOTION    = 15.45264007
ECCENTRICITY   = .00064481
INCLINATION    = 97.5756
RA_OF_ASC_NODE = 233.5445
ARG_OF_PERICENTER = 313.2835
MEAN_ANOMALY   = 46.7875

EPHEMERIS_TYPE = 0
CLASSIFICATION_TYPE = U
NORAD_CAT_ID   = 10114
ELEMENT_SET_NO = 999
REV_AT_EPOCH   = 66728
BSTAR          = .31189327E-3
MEAN_MOTION_DOT = .14763E-3
MEAN_MOTION_DDOT = 0

CCSDS_OMM_VERS = 2.0
CREATION_DATE  = 
ORIGINATOR     = 

OBJECT_NAME    = SEASAT 1
OBJECT_ID      = 1978-064A
CENTER_NAME    = EARTH
REF_FRAME      = TEME
TIME_SYSTEM    = UTC
MEAN_ELEMENT_THEORY = SGP/SGP4

EPOCH          = 2026-03-02T22:11:37.694112
MEAN_MOTION    = 14.46154087
ECCENTRICITY   = .00021562
INCLINATION    = 108.0126
RA_OF_ASC_NODE = 111.3041
ARG_OF_PERICENTER = 288.2551
MEAN_ANOMALY   = 71.8360

EPHEMERIS_TYPE = 0
CLASSIFICATION_TYPE = U
NORAD_CAT_ID   = 10967
ELEMENT_SET_NO = 999
REV_AT_EPOCH   = 50553
BSTAR          = .11653296E-3
MEAN_MOTION_DOT = .279E-5
MEAN_MOTION_DDOT = 0

CCSDS_OMM_VERS = 2.0
CREATION_DATE  = 
ORIGINATOR     = 

OBJECT_NAME    = SL-14 R/B
OBJECT_ID      = 1979-011B
CENTER_NAME    = EARTH
REF_FRAME      = TEME
TIME_SYSTEM    = UTC
MEAN_ELEMENT_THEORY = SGP/SGP4

EPOCH          = 2026-03-02T14:31:28.483392
MEAN_MOTION    = 14.91898251
ECCENTRICITY   = .0017629
INCLINATION    = 82.5216
RA_OF_ASC_NODE = 103.2948
ARG_OF_PERICENTER = 82.2454
MEAN_ANOMALY   = 278.0767

EPHEMERIS_TYPE = 0
CLASSIFICATION_TYPE = U
NORAD_CAT_ID   = 11267
ELEMENT_SET_NO = 999
REV_AT_EPOCH   = 52772
BSTAR          = .62542E-4
MEAN_MOTION_DOT = .66E-5
MEAN_MOTION_DDOT = 0

CCSDS_OMM_VERS = 2.0
CREATION_DATE  = 
ORIGINATOR     = 

OBJECT_NAME    = SL-8 R/B
OBJECT_ID      = 1979-089B
CENTER_NAME    = EARTH
REF_FRAME      = TEME
TIME_SYSTEM    = UTC
MEAN_ELEMENT_THEORY = SGP/SGP4

EPOCH          = 2026-03-02T12:46:14.990880
MEAN_MOTION    = 14.42345054
ECCENTRICITY   = .0017104
INCLINATION    = 74.0673
RA_OF_ASC_NODE = 104.2945
ARG_OF_PERICENTER = 277.6823
MEAN_ANOMALY   = 82.2391

EPHEMERIS_TYPE = 0
CLASSIFICATION_TYPE = U
NORAD_CAT_ID   = 11574
ELEMENT_SET_NO = 999
REV_AT_EPOCH   = 43507
BSTAR          = .94139E-4
MEAN_MOTION_DOT = .285E-5
MEAN_MOTION_DDOT = 0

CCSDS_OMM_VERS = 2.0
CREATION_DATE  = 
ORIGINATOR     = 

OBJECT_NAME    = SL-14 R/B
OBJECT_ID      = 1980-005B
CENTER_NAME    = EARTH
REF_FRAME      = TEME
TIME_SYSTEM    = UTC
MEAN_ELEMENT_THEORY = SGP/SGP4

EPOCH          = 2026-03-02T17:56:48.385536
MEAN_MOTION    = 14.90920563
ECCENTRICITY   = .00155674
INCLINATION    = 82.5157
RA_OF_ASC_NODE = 313.8205
ARG_OF_PERICENTER = 180.9466
MEAN_ANOMALY   = 179.1727

EPHEMERIS_TYPE = 0
CLASSIFICATION_TYPE = U
NORAD_CAT_ID   = 11672
ELEMENT_SET_NO = 999
REV_AT_EPOCH   = 47545
BSTAR          = .6934168E-4
MEAN_MOTION_DOT = .71E-5
MEAN_MOTION_DDOT = 0

CCSDS_OMM_VERS = 2.0
CREATION_DATE  = 
ORIGINATOR     = 

OBJECT_NAME    = SL-8 R/B
OBJECT_ID      = 1981-003B
CENTER_NAME    = EARTH
REF_FRAME      = TEME
TIME_SYSTEM    = UTC
MEAN_ELEMENT_THEORY = SGP/SGP4

EPOCH          = 2026-03-02T17:09:38.607552
MEAN_MOTION    = 15.10656978
ECCENTRICITY   = .02627363
INCLINATION    = 82.9395
RA_OF_ASC_NODE = 296.4730
ARG_OF_PERICENTER = 202.8613
MEAN_ANOMALY   = 156.0754

EPHEMERIS_TYPE = 0
CLASSIFICATION_TYPE = U
NORAD_CAT_ID   = 12139
ELEMENT_SET_NO = 999
REV_AT_EPOCH   = 31362
BSTAR          = .51315151E-3
MEAN_MOTION_DOT = .19842E-3
MEAN_MOTION_DDOT = 0

CCSDS_OMM_VERS = 2.0
CREATION_DATE  = 
ORIGINATOR     = 

OBJECT_NAME    = SL-3 R/B
OBJECT_ID      = 1981-046B
CENTER_NAME    = EARTH
REF_FRAME      = TEME
TIME_SYSTEM    = UTC
MEAN_ELEMENT_THEORY = SGP/SGP4

EPOCH          = 2026-03-02T21:43:54.031872
MEAN_MOTION    = 15.41783340
ECCENTRICITY   = .00201383
INCLINATION    = 81.2313
RA_OF_ASC_NODE = 297.8903
ARG_OF_PERICENTER = 45.1880
MEAN_ANOMALY   = 315.0995

EPHEMERIS_TYPE = 0
CLASSIFICATION_TYPE = U
NORAD_CAT_ID   = 12465
ELEMENT_SET_NO = 999
REV_AT_EPOCH   = 43738
BSTAR          = .32844008E-3
MEAN_MOTION_DOT = .14036E-3
MEAN_MOTION_DDOT = 0

CCSDS_OMM_VERS = 2.0
CREATION_DATE  = 
ORIGINATOR     = 

OBJECT_NAME    = SL-3 R/B
OBJECT_ID      = 1981-103B
CENTER_NAME    = EARTH
REF_FRAME      = TEME
TIME_SYSTEM    = UTC
MEAN_ELEMENT_THEORY = SGP/SGP4

EPOCH          = 2026-03-02T22:22:00.888672
MEAN_MOTION    = 15.21272937
ECCENTRICITY   = .00125664
INCLINATION    = 81.1568
RA_OF_ASC_NODE = 221.3591
ARG_OF_PERICENTER = 311.3173
MEAN_ANOMALY   = 48.6976

EPHEMERIS_TYPE = 0
CLASSIFICATION_TYPE = U
NORAD_CAT_ID   = 12904
ELEMENT_SET_NO = 999
REV_AT_EPOCH   = 97220
BSTAR          = .29335675E-3
MEAN_MOTION_DOT = .6594E-4
MEAN_MOTION_DDOT = 0

CCSDS_OMM_VERS = 2.0
CREATION_DATE  = 
ORIGINATOR     = 

OBJECT_NAME    = SL-3 R/B
OBJECT_ID      = 1982-013B
CENTER_NAME    = EARTH
REF_FRAME      = TEME
TIME_SYSTEM    = UTC
MEAN_ELEMENT_THEORY = SGP/SGP4

EPOCH          = 2026-03-02T21:03:03.932640
MEAN_MOTION    = 15.21930194
ECCENTRICITY   = .00223017
INCLINATION    = 81.1771
RA_OF_ASC_NODE = 168.7531
ARG_OF_PERICENTER = 200.6456
MEAN_ANOMALY   = 159.3877

EPHEMERIS_TYPE = 0
CLASSIFICATION_TYPE = U
NORAD_CAT_ID   = 13068
ELEMENT_SET_NO = 999
REV_AT_EPOCH   = 40331
BSTAR          = .23187414E-3
MEAN_MOTION_DOT = .5343E-4
MEAN_MOTION_DDOT = 0

CCSDS_OMM_VERS = 2.0
CREATION_DATE  = 
ORIGINATOR     = 

OBJECT_NAME    = SL-3 R/B
OBJECT_ID      = 1982-039B
CENTER_NAME    = EARTH
REF_FRAME      = TEME
TIME_SYSTEM    = UTC
MEAN_ELEMENT_THEORY = SGP/SGP4

EPOCH          = 2026-03-02T21:33:07.670880
MEAN_MOTION    = 15.10031658
ECCENTRICITY   = .00298839
INCLINATION    = 81.1580
RA_OF_ASC_NODE = 223.7921
ARG_OF_PERICENTER = 346.5966
MEAN_ANOMALY   = 13.4462

EPHEMERIS_TYPE = 0
CLASSIFICATION_TYPE = U
NORAD_CAT_ID   = 13154
ELEMENT_SET_NO = 999
REV_AT_EPOCH   = 38061
BSTAR          = .18952374E-3
MEAN_MOTION_DOT = .3136E-4
MEAN_MOTION_DDOT = 0

